<?xml version="1.0" encoding="UTF-8"?>
<ndm xmlns:xsi="http://www.w3.org/2001/XMLSchema-instance" xsi:noNamespaceSchemaLocation="https://sanaregistry.org/r/ndmxml_unqualified/ndmxml-2.0.0-master-2.0.xsd">
<omm id="CCSDS_OMM_VERS" version="2.0">
<header><CREATION_DATE/><ORIGINATOR/></header><body><segment><metadata><OBJECT_NAME>KUIPER-00112</OBJECT_NAME><OBJECT_ID>2025-171U</OBJECT_ID><CENTER_NAME>EARTH</CENTER_NAME><REF_FRAME>TEME</REF_FRAME><TIME_SYSTEM>UTC</TIME_SYSTEM><MEAN_ELEMENT_THEORY>SGP4</MEAN_ELEMENT_THEORY></metadata><data><meanElements><EPOCH>2025-11-28T04:00:03.998880</EPOCH><MEAN_MOTION>14.93840234</MEAN_MOTION><ECCENTRICITY>.0009493</ECCENTRICITY><INCLINATION>51.8938</INCLINATION><RA_OF_ASC_NODE>245.0904</RA_OF_ASC_NODE><ARG_OF_PERICENTER>181.8812</ARG_OF_PERICENTER><MEAN_ANOMALY>350.1612</MEAN_ANOMALY></meanElements><tleParameters><EPHEMERIS_TYPE>0</EPHEMERIS_TYPE><CLASSIFICATION_TYPE>U</CLASSIFICATION_TYPE><NORAD_CAT_ID>65150</NORAD_CAT_ID><ELEMENT_SET_NO>999</ELEMENT_SET_NO><REV_AT_EPOCH>414</REV_AT_EPOCH><BSTAR>.74503E-3</BSTAR><MEAN_MOTION_DOT>.7755E-4</MEAN_MOTION_DOT><MEAN_MOTION_DDOT>0</MEAN_MOTION_DDOT></tleParameters></data></segment></body></omm>
<omm id="CCSDS_OMM_VERS" version="2.0">
<header><CREATION_DATE/><ORIGINATOR/></header><body><segment><metadata><OBJECT_NAME>KUIPER-00114</OBJECT_NAME><OBJECT_ID>2025-171V</OBJECT_ID><CENTER_NAME>EARTH</CENTER_NAME><REF_FRAME>TEME</REF_FRAME><TIME_SYSTEM>UTC</TIME_SYSTEM><MEAN_ELEMENT_THEORY>SGP4</MEAN_ELEMENT_THEORY></metadata><data><meanElements><EPOCH>2025-11-28T02:14:48.367968</EPOCH><MEAN_MOTION>14.79888549</MEAN_MOTION><ECCENTRICITY>.0006728</ECCENTRICITY><INCLINATION>51.8996</INCLINATION><RA_OF_ASC_NODE>264.8636</RA_OF_ASC_NODE><ARG_OF_PERICENTER>126.9863</ARG_OF_PERICENTER><MEAN_ANOMALY>233.1716</MEAN_ANOMALY></meanElements><tleParameters><EPHEMERIS_TYPE>0</EPHEMERIS_TYPE><CLASSIFICATION_TYPE>U</CLASSIFICATION_TYPE><NORAD_CAT_ID>65151</NORAD_CAT_ID><ELEMENT_SET_NO>999</ELEMENT_SET_NO><REV_AT_EPOCH>1759</REV_AT_EPOCH><BSTAR>.70077E-3</BSTAR><MEAN_MOTION_DOT>.512E-4</MEAN_MOTION_DOT><MEAN_MOTION_DDOT>0</MEAN_MOTION_DDOT></tleParameters></data></segment></body></omm>
<omm id="CCSDS_OMM_VERS" version="2.0">
<header><CREATION_DATE/><ORIGINATOR/></header><body><segment><metadata><OBJECT_NAME>KUIPER-00115</OBJECT_NAME><OBJECT_ID>2025-171W</OBJECT_ID><CENTER_NAME>EARTH</CENTER_NAME><REF_FRAME>TEME</REF_FRAME><TIME_SYSTEM>UTC</TIME_SYSTEM><MEAN_ELEMENT_THEORY>SGP4</MEAN_ELEMENT_THEORY></metadata><data><meanElements><EPOCH>2025-11-28T04:03:33.295104</EPOCH><MEAN_MOTION>14.79882934</MEAN_MOTION><ECCENTRICITY>.0010194</ECCENTRICITY><INCLINATION>51.9000</INCLINATION><RA_OF_ASC_NODE>257.0078</RA_OF_ASC_NODE><ARG_OF_PERICENTER>150.7134</ARG_OF_PERICENTER><MEAN_ANOMALY>209.4402</MEAN_ANOMALY></meanElements><tleParameters><EPHEMERIS_TYPE>0</EPHEMERIS_TYPE><CLASSIFICATION_TYPE>U</CLASSIFICATION_TYPE><NORAD_CAT_ID>65152</NORAD_CAT_ID><ELEMENT_SET_NO>999</ELEMENT_SET_NO><REV_AT_EPOCH>1771</REV_AT_EPOCH><BSTAR>-.26715E-2</BSTAR><MEAN_MOTION_DOT>-.20522E-3</MEAN_MOTION_DOT><MEAN_MOTION_DDOT>0</MEAN_MOTION_DDOT></tleParameters></data></segment></body></omm>
<omm id="CCSDS_OMM_VERS" version="2.0">
<header><CREATION_DATE/><ORIGINATOR/></header><body><segment><metadata><OBJECT_NAME>KUIPER-00116</OBJECT_NAME><OBJECT_ID>2025-171X</OBJECT_ID><CENTER_NAME>EARTH</CENTER_NAME><REF_FRAME>TEME</REF_FRAME><TIME_SYSTEM>UTC</TIME_SYSTEM><MEAN_ELEMENT_THEORY>SGP4</MEAN_ELEMENT_THEORY></metadata><data><meanElements><EPOCH>2025-11-27T06:03:04.937472</EPOCH><MEAN_MOTION>14.79955926</MEAN_MOTION><ECCENTRICITY>.00106701</ECCENTRICITY><INCLINATION>51.8989</INCLINATION><RA_OF_ASC_NODE>266.1105</RA_OF_ASC_NODE><ARG_OF_PERICENTER>113.5891</ARG_OF_PERICENTER><MEAN_ANOMALY>246.6193</MEAN_ANOMALY></meanElements><tleParameters><EPHEMERIS_TYPE>0</EPHEMERIS_TYPE><CLASSIFICATION_TYPE>U</CLASSIFICATION_TYPE><NORAD_CAT_ID>65153</NORAD_CAT_ID><ELEMENT_SET_NO>999</ELEMENT_SET_NO><REV_AT_EPOCH>1750</REV_AT_EPOCH><BSTAR>.72060292E-3</BSTAR><MEAN_MOTION_DOT>.5282E-4</MEAN_MOTION_DOT><MEAN_MOTION_DDOT>0</MEAN_MOTION_DDOT></tleParameters></data></segment></body></omm>
<omm id="CCSDS_OMM_VERS" version="2.0">
<header><CREATION_DATE/><ORIGINATOR/></header><body><segment><metadata><OBJECT_NAME>KUIPER-00118</OBJECT_NAME><OBJECT_ID>2025-171Y</OBJECT_ID><CENTER_NAME>EARTH</CENTER_NAME><REF_FRAME>TEME</REF_FRAME><TIME_SYSTEM>UTC</TIME_SYSTEM><MEAN_ELEMENT_THEORY>SGP4</MEAN_ELEMENT_THEORY></metadata><data><meanElements><EPOCH>2025-11-28T03:03:18.802080</EPOCH><MEAN_MOTION>14.79896071</MEAN_MOTION><ECCENTRICITY>.0001833</ECCENTRICITY><INCLINATION>51.9001</INCLINATION><RA_OF_ASC_NODE>264.6917</RA_OF_ASC_NODE><ARG_OF_PERICENTER>116.8736</ARG_OF_PERICENTER><MEAN_ANOMALY>243.2414</MEAN_ANOMALY></meanElements><tleParameters><EPHEMERIS_TYPE>0</EPHEMERIS_TYPE><CLASSIFICATION_TYPE>U</CLASSIFICATION_TYPE><NORAD_CAT_ID>65154</NORAD_CAT_ID><ELEMENT_SET_NO>999</ELEMENT_SET_NO><REV_AT_EPOCH>1760</REV_AT_EPOCH><BSTAR>.42537E-4</BSTAR><MEAN_MOTION_DOT>.103E-5</MEAN_MOTION_DOT><MEAN_MOTION_DDOT>0</MEAN_MOTION_DDOT></tleParameters></data></segment></body></omm>
<omm id="CCSDS_OMM_VERS" version="2.0">
<header><CREATION_DATE/><ORIGINATOR/></header><body><segment><metadata><OBJECT_NAME>KUIPER-00119</OBJECT_NAME><OBJECT_ID>2025-171Z</OBJECT_ID><CENTER_NAME>EARTH</CENTER_NAME><REF_FRAME>TEME</REF_FRAME><TIME_SYSTEM>UTC</TIME_SYSTEM><MEAN_ELEMENT_THEORY>SGP4</MEAN_ELEMENT_THEORY></metadata><data><meanElements><EPOCH>2025-11-28T01:45:34.803936</EPOCH><MEAN_MOTION>14.79975387</MEAN_MOTION><ECCENTRICITY>.0009119</ECCENTRICITY><INCLINATION>51.8992</INCLINATION><RA_OF_ASC_NODE>252.5162</RA_OF_ASC_NODE><ARG_OF_PERICENTER>140.1976</ARG_OF_PERICENTER><MEAN_ANOMALY>219.9657</MEAN_ANOMALY></meanElements><tleParameters><EPHEMERIS_TYPE>0</EPHEMERIS_TYPE><CLASSIFICATION_TYPE>U</CLASSIFICATION_TYPE><NORAD_CAT_ID>65155</NORAD_CAT_ID><ELEMENT_SET_NO>999</ELEMENT_SET_NO><REV_AT_EPOCH>1776</REV_AT_EPOCH><BSTAR>.57444E-3</BSTAR><MEAN_MOTION_DOT>.4166E-4</MEAN_MOTION_DOT><MEAN_MOTION_DDOT>0</MEAN_MOTION_DDOT></tleParameters></data></segment></body></omm>
<omm id="CCSDS_OMM_VERS" version="2.0">
<header><CREATION_DATE/><ORIGINATOR/></header><body><segment><metadata><OBJECT_NAME>KUIPER-00120</OBJECT_NAME><OBJECT_ID>2025-217A</OBJECT_ID><CENTER_NAME>EARTH</CENTER_NAME><REF_FRAME>TEME</REF_FRAME><TIME_SYSTEM>UTC</TIME_SYSTEM><MEAN_ELEMENT_THEORY>SGP4</MEAN_ELEMENT_THEORY></metadata><data><meanElements><EPOCH>2025-11-28T04:18:33.755040</EPOCH><MEAN_MOTION>14.92365183</MEAN_MOTION><ECCENTRICITY>.0016248</ECCENTRICITY><INCLINATION>51.8922</INCLINATION><RA_OF_ASC_NODE>142.0441</RA_OF_ASC_NODE><ARG_OF_PERICENTER>316.2723</ARG_OF_PERICENTER><MEAN_ANOMALY>43.6957</MEAN_ANOMALY></meanElements><tleParameters><EPHEMERIS_TYPE>0</EPHEMERIS_TYPE><CLASSIFICATION_TYPE>U</CLASSIFICATION_TYPE><NORAD_CAT_ID>65762</NORAD_CAT_ID><ELEMENT_SET_NO>999</ELEMENT_SET_NO><REV_AT_EPOCH>970</REV_AT_EPOCH><BSTAR>.52298E-3</BSTAR><MEAN_MOTION_DOT>.5171E-4</MEAN_MOTION_DOT><MEAN_MOTION_DDOT>0</MEAN_MOTION_DDOT></tleParameters></data></segment></body></omm>
<omm id="CCSDS_OMM_VERS" version="2.0">
<header><CREATION_DATE/><ORIGINATOR/></header><body><segment><metadata><OBJECT_NAME>KUIPER-00132</OBJECT_NAME><OBJECT_ID>2025-217B</OBJECT_ID><CENTER_NAME>EARTH</CENTER_NAME><REF_FRAME>TEME</REF_FRAME><TIME_SYSTEM>UTC</TIME_SYSTEM><MEAN_ELEMENT_THEORY>SGP4</MEAN_ELEMENT_THEORY></metadata><data><meanElements><EPOCH>2025-11-27T18:00:11.517120</EPOCH><MEAN_MOTION>15.37047907</MEAN_MOTION><ECCENTRICITY>.00056003</ECCENTRICITY><INCLINATION>51.8622</INCLINATION><RA_OF_ASC_NODE>137.2300</RA_OF_ASC_NODE><ARG_OF_PERICENTER>323.2009</ARG_OF_PERICENTER><MEAN_ANOMALY>36.8592</MEAN_ANOMALY></meanElements><tleParameters><EPHEMERIS_TYPE>0</EPHEMERIS_TYPE><CLASSIFICATION_TYPE>U</CLASSIFICATION_TYPE><NORAD_CAT_ID>65763</NORAD_CAT_ID><ELEMENT_SET_NO>999</ELEMENT_SET_NO><REV_AT_EPOCH>973</REV_AT_EPOCH><BSTAR>.84132075E-3</BSTAR><MEAN_MOTION_DOT>.30723E-3</MEAN_MOTION_DOT><MEAN_MOTION_DDOT>0</MEAN_MOTION_DDOT></tleParameters></data></segment></body></omm>

</ndm>
