KUIPER-00112            
1 65150U 25171U   25332.16671295  .00007755  00000+0  74503-3 0  9990
2 65150  51.8938 245.0904 0009493 181.8812 350.1612 14.93840234  4146
KUIPER-00114            
1 65151U 25171V   25332.09361537  .00005120  00000+0  70077-3 0  9994
2 65151  51.8996 264.8636 0006728 126.9863 233.1716 14.79888549 17599
KUIPER-00115            
1 65152U 25171W   25332.16913536 -.00020522  00000+0 -26715-2 0  9999
2 65152  51.9000 257.0078 0010194 150.7134 209.4402 14.79882934 17713
KUIPER-00116            
1 65153U 25171X   25331.25214048  .00005282  00000+0  72060-3 0  9990
2 65153  51.8989 266.1105 0010670 113.5891 246.6193 14.79955926 17506
KUIPER-00118            
1 65154U 25171Y   25332.12730095  .00000103  00000+0  42537-4 0  9997
2 65154  51.9001 264.6917 0001833 116.8736 243.2414 14.79896071 17607
KUIPER-00119            
1 65155U 25171Z   25332.07331949  .00004166  00000+0  57444-3 0  9992
2 65155  51.8992 252.5162 0009119 140.1976 219.9657 14.79975387 17769
KUIPER-00120            
1 65762U 25217A   25332.17955735  .00005171  00000+0  52298-3 0  9992
2 65762  51.8922 142.0441 0016248 316.2723  43.6957 14.92365183  9708
KUIPER-00132            
1 65763U 25217B   25331.75013330  .00030723  00000+0  84132-3 0  9995
2 65763  51.8622 137.2300 0005600 323.2009  36.8592 15.37047907  9734
